EARTHCARE               
1 59908U 24101A   24160.91549727  .00018861  00000+0  29444-3 0  9995
2 59908  96.9802 288.9117 0005436 128.4883 231.6860 15.53843200  1700
